INTELSAT 25 (IS-25)     
1 33153U 08034A   17345.86307423 -.00000230  00000-0  00000+0 0  9998
2 33153   0.0190 279.9887 0002688 344.3033  95.6826  1.00272454 34469
